SPOT 6                  
1 38755U 12047A   26188.84710190  .00000162  00000+0  44680-4 0  9991
2 38755  98.2105 255.9136 0001145  78.6686 281.4642 14.58536015736065
SPOT 7                  
1 40053U 14034A   26188.86514091  .00000091  00000+0  27842-4 0  9999
2 40053  98.0614 250.8233 0001508  97.3810 262.7562 14.60976327640158
