{"fetched_at":"2026-07-08T07:04:20.215Z","source":"https://celestrak.org/NORAD/elements/gp.php?NAME=SPOT&FORMAT=JSON","constellation":"spot","records":[{"OBJECT_NAME":"SPOT 6","OBJECT_ID":"2012-047A","EPOCH":"2026-07-07T20:19:49.604160","CLASSIFICATION_TYPE":"U","MEAN_MOTION":14.58536015,"ECCENTRICITY":0.0001145,"INCLINATION":98.2105,"RA_OF_ASC_NODE":255.9136,"ARG_OF_PERICENTER":78.6686,"MEAN_ANOMALY":281.4642,"EPHEMERIS_TYPE":0,"NORAD_CAT_ID":38755,"ELEMENT_SET_NO":999,"REV_AT_EPOCH":73606,"BSTAR":0.00004468,"MEAN_MOTION_DOT":0.00000162,"MEAN_MOTION_DDOT":0},{"OBJECT_NAME":"SPOT 7","OBJECT_ID":"2014-034A","EPOCH":"2026-07-07T20:45:48.174624","CLASSIFICATION_TYPE":"U","MEAN_MOTION":14.60976327,"ECCENTRICITY":0.0001508,"INCLINATION":98.0614,"RA_OF_ASC_NODE":250.8233,"ARG_OF_PERICENTER":97.381,"MEAN_ANOMALY":262.7562,"EPHEMERIS_TYPE":0,"NORAD_CAT_ID":40053,"ELEMENT_SET_NO":999,"REV_AT_EPOCH":64015,"BSTAR":0.000027842,"MEAN_MOTION_DOT":9.1e-7,"MEAN_MOTION_DDOT":0}]}
